NORAD_CAT_ID,OBJECT_NAME,OBJECT_TYPE,EPOCH,MEAN_MOTION,ECCENTRICITY,INCLINATION,RA_OF_ASC_NODE,ARG_OF_PERICENTER,MEAN_ANOMALY,BSTAR,MEAN_MOTION_DOT,MEAN_MOTION_DDOT,TLE_LINE0,TLE_LINE1,TLE_LINE2,SEMIMAJOR_AXIS,PERIOD,APOGEE,PERIGEE,DECAYED
52102.0,STARLINK-3709,PAYLOAD,2022-09-16 18:37:00,15.0883111,0.0001776,53.2205,19.977,52.5345,307.5809,6.2423e-05,7.05e-06,0.0,0 STARLINK-3709,1 52102U 22029Q   22259.77570290  .00000705  00000-0  62423-4 0  9995,2 52102  53.2205  19.9770 0001776  52.5345 307.5809 15.08831110 29075,6917.908,95.438,541.001,538.544,0.0
52102.0,STARLINK-3709,PAYLOAD,2022-09-17 12:06:15,15.08831259,0.0001878,53.2204,16.7067,45.2054,314.909,1.5754000000000002e-05,-3.7e-07,0.0,0 STARLINK-3709,1 52102U 22029Q   22260.50434745 -.00000037  00000-0  15754-4 0  9996,2 52102  53.2204  16.7067 0001878  45.2054 314.9090 15.08831259 29187,6917.906999999997,95.438,541.071,538.4730000000002,0.0
52102.0,STARLINK-3709,PAYLOAD,2022-09-17 16:52:24,15.08835401,0.0002004,53.2203,15.8149,61.4844,298.6349,1.4534e-05,-5.7e-07,0.0,0 STARLINK-3709,1 52102U 22029Q   22260.70306581 -.00000057  00000-0  14534-4 0  9991,2 52102  53.2203  15.8149 0002004  61.4844 298.6349 15.08835401 29218,6917.894,95.438,541.146,538.373,0.0
52102.0,STARLINK-3709,PAYLOAD,2022-09-18 11:57:02,15.08833464,0.0001943,53.2203,12.2466,49.9285,310.1877,-2.3235e-07,-2.92e-06,0.0,0 STARLINK-3709,1 52102U 22029Q   22261.49794999 -.00000292  00000-0 -23235-6 0  9994,2 52102  53.2203  12.2466 0001943  49.9285 310.1877 15.08833464 29338,6917.9,95.438,541.11,538.4209999999998,0.0
52102.0,STARLINK-3709,PAYLOAD,2022-09-18 13:32:26,15.08807456,0.0001716,53.2216,11.9495,70.0775,290.0402,0.00038328,5.812e-05,0.0,0 STARLINK-3709,1 52102U 22029Q   22261.56419720  .00005812  00000-0  38328-3 0  9995,2 52102  53.2216  11.9495 0001716  70.0775 290.0402 15.08807456 29340,6917.98,95.44,541.0319999999998,538.658,0.0
52102.0,STARLINK-3709,PAYLOAD,2022-09-18 16:43:11,15.08844141,0.0001723,53.2203,11.3537,55.4503,304.6651,4.602100000000001e-05,4.45e-06,0.0,0 STARLINK-3709,1 52102U 22029Q   22261.69666173  .00000445  00000-0  46021-4 0  9992,2 52102  53.2203  11.3537 0001723  55.4503 304.6651 15.08844141 29363,6917.868,95.437,540.925,538.5409999999998,0.0
52102.0,STARLINK-3709,PAYLOAD,2022-09-19 00:40:07,15.08818042,0.0001717,53.2203,9.8667,54.7927,305.3226,0.00048156,7.38e-05,0.0,0 STARLINK-3709,1 52102U 22029Q   22262.02786189  .00007380  00000-0  48156-3 0  9995,2 52102  53.2203   9.8667 0001717  54.7927 305.3226 15.08818042 29417,6917.948,95.439,541.0,538.625,0.0
52102.0,STARLINK-3709,PAYLOAD,2022-09-19 13:23:12,15.08844275,0.0001535,53.2215,7.4874,62.3519,297.7629,2.5367e-05,1.16e-06,0.0,0 STARLINK-3709,1 52102U 22029Q   22262.55778076  .00000116  00000-0  25367-4 0  9999,2 52102  53.2215   7.4874 0001535  62.3519 297.7629 15.08844275 29490,6917.8669999999975,95.437,540.794,538.67,0.0
52102.0,STARLINK-3709,PAYLOAD,2022-09-19 16:33:58,15.08846457,0.0001781,53.221,6.8935,58.2109,301.9056,6.3231e-05,7.19e-06,0.0,0 STARLINK-3709,1 52102U 22029Q   22262.69025824  .00000719  00000-0  63231-4 0  9991,2 52102  53.2210   6.8935 0001781  58.2109 301.9056 15.08846457 29517,6917.861,95.437,540.9580000000002,538.494,0.0
52102.0,STARLINK-3709,PAYLOAD,2022-09-20 10:03:13,15.08843953,0.000179,53.2199,3.622,53.8086,306.3072,-4.6061e-06,-3.61e-06,0.0,0 STARLINK-3709,1 52102U 22029Q   22263.41890068 -.00000361  00000-0 -46061-5 0  9990,2 52102  53.2199   3.6220 0001790  53.8086 306.3072 15.08843953 29627,6917.868,95.437,540.972,538.495,0.0
52102.0,STARLINK-3709,PAYLOAD,2022-09-20 13:13:59,15.08845864,0.0001783,53.2197,3.0269,53.0608,307.0547,1.5257e-06,-2.64e-06,0.0,0 STARLINK-3709,1 52102U 22029Q   22263.55137877 -.00000264  00000-0  15257-5 0  9991,2 52102  53.2197   3.0269 0001783  53.0608 307.0547 15.08845864 29646,6917.861999999999,95.437,540.961,538.494,0.0
52102.0,STARLINK-3709,PAYLOAD,2022-09-20 16:24:45,15.08843533,0.0001828,53.2203,2.4334,53.1193,306.9967,1.5106e-05,-4.8e-07,0.0,0 STARLINK-3709,1 52102U 22029Q   22263.68385933 -.00000048  00000-0  15106-4 0  9995,2 52102  53.2203   2.4334 0001828  53.1193 306.9967 15.08843533 29667,6917.87,95.437,540.999,538.47,0.0
52102.0,STARLINK-3709,PAYLOAD,2022-09-21 16:15:32,15.08844112,0.0001872,53.2197,357.9734,50.858,309.2578,-1.9988e-05,-6.06e-06,0.0,0 STARLINK-3709,1 52102U 22029Q   22264.67745707 -.00000606  00000-0 -19988-4 0  9997,2 52102  53.2197 357.9734 0001872  50.8580 309.2578 15.08844112 29819,6917.868,95.437,541.028,538.438,0.0
52102.0,STARLINK-3709,PAYLOAD,2022-09-22 08:09:23,15.08834674,0.0001921999999999,53.2197,355.0006,49.6275,310.4884,2.6805e-05,1.38e-06,0.0,0 STARLINK-3709,1 52102U 22029Q   22265.33986053  .00000138  00000-0  26805-4 0  9996,2 52102  53.2197 355.0006 0001922  49.6275 310.4884 15.08834674 29910,6917.897,95.438,541.091,538.432,0.0
52102.0,STARLINK-3709,PAYLOAD,2022-09-22 16:06:19,15.08834293,0.0002041,53.2176,353.5126,47.2936,312.8228,-1.0639e-05,-4.58e-06,0.0,0 STARLINK-3709,1 52102U 22029Q   22265.67106313 -.00000458  00000-0 -10639-4 0  9991,2 52102  53.2176 353.5126 0002041  47.2936 312.8228 15.08834293 29964,6917.898,95.438,541.175,538.351,0.0
52102.0,STARLINK-3709,PAYLOAD,2022-09-23 09:35:34,15.08836522,0.000184,53.2191,350.2414,43.1245,316.9891,-3.4042e-05,-8.3e-06,0.0,0 STARLINK-3709,1 52102U 22029Q   22266.39970345 -.00000830  00000-0 -34042-4 0  9993,2 52102  53.2191 350.2414 0001840  43.1245 316.9891 15.08836522 30071,6917.891,95.438,541.029,538.4830000000002,0.0
52102.0,STARLINK-3709,PAYLOAD,2022-09-23 12:46:20,15.0883617,0.0001786,53.2198,349.6471,46.174,313.94,-3.4966e-05,-8.44e-06,0.0,0 STARLINK-3709,1 52102U 22029Q   22266.53218387 -.00000844  00000-0 -34966-4 0  9990,2 52102  53.2198 349.6471 0001786  46.1740 313.9400 15.08836170 30099,6917.892,95.438,540.993,538.5219999999998,0.0
52102.0,STARLINK-3709,PAYLOAD,2022-09-23 14:21:43,15.08836607,0.0001786999999999,53.2198,349.3498,46.2468,313.8672,-3.0939e-05,-7.8e-06,0.0,0 STARLINK-3709,1 52102U 22029Q   22266.59842361 -.00000780  00000-0 -30939-4 0  9996,2 52102  53.2198 349.3498 0001787  46.2468 313.8672 15.08836607 30101,6917.891,95.438,540.992,538.52,0.0
52102.0,STARLINK-3709,PAYLOAD,2022-09-24 12:37:07,15.08831482,0.0001684,53.2196,345.1866,40.9808,319.131,-3.679e-05,-8.73e-06,0.0,0 STARLINK-3709,1 52102U 22029Q   22267.52578316 -.00000873  00000-0 -36790-4 0  9990,2 52102  53.2196 345.1866 0001684  40.9808 319.1310 15.08831482 30246,6917.906,95.438,540.936,538.606,0.0
52102.0,STARLINK-3709,PAYLOAD,2022-09-24 14:12:30,15.08832724,0.0001682,53.2197,344.8892,41.9503,318.1618,-2.7262e-05,-7.22e-06,0.0,0 STARLINK-3709,1 52102U 22029Q   22267.59202228 -.00000722  00000-0 -27262-4 0  9990,2 52102  53.2197 344.8892 0001682  41.9503 318.1618 15.08832724 30254,6917.903,95.438,540.931,538.604,0.0
52102.0,STARLINK-3709,PAYLOAD,2022-09-25 10:52:31,15.08833478,0.0001651,53.2198,341.0229,46.20399999999999,313.9089,9.5362e-06,-1.36e-06,0.0,0 STARLINK-3709,1 52102U 22029Q   22268.45314469 -.00000136  00000-0  95362-5 0  9992,2 52102  53.2198 341.0229 0001651  46.2040 313.9089 15.08833478 30384,6917.9,95.438,540.9069999999998,538.623,0.0
52102.0,STARLINK-3709,PAYLOAD,2022-09-25 14:03:17,15.088352300000002,0.000165,53.2198,340.4283,46.2606,313.8522,1.6845999999999998e-05,-2e-07,0.0,0 STARLINK-3709,1 52102U 22029Q   22268.58562372 -.00000020  00000-0  16846-4 0  9995,2 52102  53.2198 340.4283 0001650  46.2606 313.8522 15.08835230 30406,6917.895,95.438,540.901,538.619,0.0
52102.0,STARLINK-3709,PAYLOAD,2022-09-26 10:43:18,15.08829141,0.000172,53.2197,336.5636,42.5357,317.5768,3.9036e-05,3.33e-06,0.0,0 STARLINK-3709,1 52102U 22029Q   22269.44674677  .00000333  00000-0  39036-4 0  9995,2 52102  53.2197 336.5636 0001720  42.5357 317.5768 15.08829141 30534,6917.9140000000025,95.438,540.9680000000002,538.589,0.0
52102.0,STARLINK-3709,PAYLOAD,2022-09-26 13:54:05,15.08832159,0.0001794,53.2194,335.9688,40.8093,319.3033,6.3914e-05,7.29e-06,0.0,0 STARLINK-3709,1 52102U 22029Q   22269.57922500  .00000729  00000-0  63914-4 0  9991,2 52102  53.2194 335.9688 0001794  40.8093 319.3033 15.08832159 30550,6917.904,95.438,541.01,538.528,0.0
52102.0,STARLINK-3709,PAYLOAD,2022-09-26 21:51:00,15.08836947,0.0001809,53.2196,334.4822,41.8695,318.2435,8.0585e-05,9.95e-06,0.0,0 STARLINK-3709,1 52102U 22029Q   22269.91042256  .00000995  00000-0  80585-4 0  9998,2 52102  53.2196 334.4822 0001809  41.8695 318.2435 15.08836947 30601,6917.89,95.438,541.006,538.503,0.0
52102.0,STARLINK-3709,PAYLOAD,2022-09-27 10:34:06,15.08829373,0.0001819,53.221,332.1044,59.2222,300.8949,5.1709e-06,-2.06e-06,0.0,0 STARLINK-3709,1 52102U 22029Q   22270.44035316 -.00000206  00000-0  51709-5 0  9990,2 52102  53.2210 332.1044 0001819  59.2222 300.8949 15.08829373 30689,6917.913000000001,95.438,541.036,538.52,0.0
52102.0,STARLINK-3709,PAYLOAD,2022-09-27 13:44:52,15.08834783,0.0001719,53.2215,331.5099,64.5572,295.5598,3.182e-05,2.18e-06,0.0,0 STARLINK-3709,1 52102U 22029Q   22270.57282916  .00000218  00000-0  31820-4 0  9997,2 52102  53.2215 331.5099 0001719  64.5572 295.5598 15.08834783 30707,6917.896,95.438,540.951,538.572,0.0
52102.0,STARLINK-3709,PAYLOAD,2022-09-28 10:24:52,15.08840425,0.0001849,53.219,327.6423,44.5768,315.5372,7.6529e-05,9.3e-06,0.0,0 STARLINK-3709,1 52102U 22029Q   22271.43394414  .00000930  00000-0  76529-4 0  9996,2 52102  53.2190 327.6423 0001849  44.5768 315.5372 15.08840425 30832,6917.879,95.438,541.023,538.465,0.0
52102.0,STARLINK-3709,PAYLOAD,2022-09-28 13:35:39,15.08839747,0.0001844999999999,53.2194,327.0482,46.9371,313.1775,7.415e-05,8.92e-06,0.0,0 STARLINK-3709,1 52102U 22029Q   22271.56642455  .00000892  00000-0  74150-4 0  9996,2 52102  53.2194 327.0482 0001845  46.9371 313.1775 15.08839747 30855,6917.880999999999,95.438,541.023,538.47,0.0
